CCSDS_OMM_VERS = 2.0
CREATION_DATE  = 
ORIGINATOR     = 

OBJECT_NAME    = DELTA 2 R/B(1)
OBJECT_ID      = 1990-008B
CENTER_NAME    = EARTH
REF_FRAME      = TEME
TIME_SYSTEM    = UTC
MEAN_ELEMENT_THEORY = SGP/SGP4

EPOCH          = 2026-01-04T00:38:45.366144
MEAN_MOTION    = 15.47495909
ECCENTRICITY   = .0105278
INCLINATION    = 35.6042
RA_OF_ASC_NODE = 236.3967
ARG_OF_PERICENTER = 20.6929
MEAN_ANOMALY   = 339.8023

EPHEMERIS_TYPE = 0
CLASSIFICATION_TYPE = U
NORAD_CAT_ID   = 20453
ELEMENT_SET_NO = 999
REV_AT_EPOCH   = 91608
BSTAR          = .10059E-2
MEAN_MOTION_DOT = .66989E-3
MEAN_MOTION_DDOT = 0

CCSDS_OMM_VERS = 2.0
CREATION_DATE  = 
ORIGINATOR     = 

OBJECT_NAME    = COSMOS 2058
OBJECT_ID      = 1990-010A
CENTER_NAME    = EARTH
REF_FRAME      = TEME
TIME_SYSTEM    = UTC
MEAN_ELEMENT_THEORY = SGP/SGP4

EPOCH          = 2026-01-04T00:21:39.212352
MEAN_MOTION    = 15.10727175
ECCENTRICITY   = .0010019
INCLINATION    = 82.4723
RA_OF_ASC_NODE = 111.1217
ARG_OF_PERICENTER = 193.0306
MEAN_ANOMALY   = 167.0666

EPHEMERIS_TYPE = 0
CLASSIFICATION_TYPE = U
NORAD_CAT_ID   = 20465
ELEMENT_SET_NO = 999
REV_AT_EPOCH   = 93247
BSTAR          = .40289E-3
MEAN_MOTION_DOT = .6712E-4
MEAN_MOTION_DDOT = 0

CCSDS_OMM_VERS = 2.0
CREATION_DATE  = 
ORIGINATOR     = 

OBJECT_NAME    = SL-14 R/B
OBJECT_ID      = 1990-010B
CENTER_NAME    = EARTH
REF_FRAME      = TEME
TIME_SYSTEM    = UTC
MEAN_ELEMENT_THEORY = SGP/SGP4

EPOCH          = 2026-01-04T00:06:01.399968
MEAN_MOTION    = 14.83498054
ECCENTRICITY   = .0020552
INCLINATION    = 82.5034
RA_OF_ASC_NODE = 328.1366
ARG_OF_PERICENTER = 149.1491
MEAN_ANOMALY   = 211.0937

EPHEMERIS_TYPE = 0
CLASSIFICATION_TYPE = U
NORAD_CAT_ID   = 20466
ELEMENT_SET_NO = 999
REV_AT_EPOCH   = 91889
BSTAR          = .96292E-4
MEAN_MOTION_DOT = .818E-5
MEAN_MOTION_DDOT = 0

CCSDS_OMM_VERS = 2.0
CREATION_DATE  = 
ORIGINATOR     = 

OBJECT_NAME    = SL-14 R/B
OBJECT_ID      = 1990-018B
CENTER_NAME    = EARTH
REF_FRAME      = TEME
TIME_SYSTEM    = UTC
MEAN_ELEMENT_THEORY = SGP/SGP4

EPOCH          = 2026-01-04T03:53:37.425408
MEAN_MOTION    = 14.82075564
ECCENTRICITY   = .0015214
INCLINATION    = 82.5223
RA_OF_ASC_NODE = 283.4093
ARG_OF_PERICENTER = 308.0103
MEAN_ANOMALY   = 51.9737

EPHEMERIS_TYPE = 0
CLASSIFICATION_TYPE = U
NORAD_CAT_ID   = 20511
ELEMENT_SET_NO = 999
REV_AT_EPOCH   = 91302
BSTAR          = .9948E-4
MEAN_MOTION_DOT = .815E-5
MEAN_MOTION_DDOT = 0

CCSDS_OMM_VERS = 2.0
CREATION_DATE  = 
ORIGINATOR     = 

OBJECT_NAME    = HST
OBJECT_ID      = 1990-037B
CENTER_NAME    = EARTH
REF_FRAME      = TEME
TIME_SYSTEM    = UTC
MEAN_ELEMENT_THEORY = SGP/SGP4

EPOCH          = 2026-01-03T23:53:53.308032
MEAN_MOTION    = 15.28385094
ECCENTRICITY   = .0002543
INCLINATION    = 28.4667
RA_OF_ASC_NODE = 120.9614
ARG_OF_PERICENTER = 112.5508
MEAN_ANOMALY   = 247.5357

EPHEMERIS_TYPE = 0
CLASSIFICATION_TYPE = U
NORAD_CAT_ID   = 20580
ELEMENT_SET_NO = 999
REV_AT_EPOCH   = 76340
BSTAR          = .35903E-3
MEAN_MOTION_DOT = .10446E-3
MEAN_MOTION_DDOT = 0

CCSDS_OMM_VERS = 2.0
CREATION_DATE  = 
ORIGINATOR     = 

OBJECT_NAME    = SL-16 R/B
OBJECT_ID      = 1990-046B
CENTER_NAME    = EARTH
REF_FRAME      = TEME
TIME_SYSTEM    = UTC
MEAN_ELEMENT_THEORY = SGP/SGP4

EPOCH          = 2026-01-04T03:43:49.147680
MEAN_MOTION    = 14.15001036
ECCENTRICITY   = .0012781
INCLINATION    = 70.9995
RA_OF_ASC_NODE = 73.4473
ARG_OF_PERICENTER = 35.3306
MEAN_ANOMALY   = 324.8660

EPHEMERIS_TYPE = 0
CLASSIFICATION_TYPE = U
NORAD_CAT_ID   = 20625
ELEMENT_SET_NO = 999
REV_AT_EPOCH   = 83926
BSTAR          = .21E-3
MEAN_MOTION_DOT = .359E-5
MEAN_MOTION_DDOT = 0

CCSDS_OMM_VERS = 2.0
CREATION_DATE  = 
ORIGINATOR     = 

OBJECT_NAME    = COSMOS 2084
OBJECT_ID      = 1990-055A
CENTER_NAME    = EARTH
REF_FRAME      = TEME
TIME_SYSTEM    = UTC
MEAN_ELEMENT_THEORY = SGP/SGP4

EPOCH          = 2026-01-03T22:59:38.142240
MEAN_MOTION    = 15.05180500
ECCENTRICITY   = .002796
INCLINATION    = 62.7886
RA_OF_ASC_NODE = 196.2789
ARG_OF_PERICENTER = 177.9273
MEAN_ANOMALY   = 182.1948

EPHEMERIS_TYPE = 0
CLASSIFICATION_TYPE = U
NORAD_CAT_ID   = 20663
ELEMENT_SET_NO = 999
REV_AT_EPOCH   = 92657
BSTAR          = .37659E-3
MEAN_MOTION_DOT = .5241E-4
MEAN_MOTION_DDOT = 0

CCSDS_OMM_VERS = 2.0
CREATION_DATE  = 
ORIGINATOR     = 

OBJECT_NAME    = SL-6 R/B(2)
OBJECT_ID      = 1990-055D
CENTER_NAME    = EARTH
REF_FRAME      = TEME
TIME_SYSTEM    = UTC
MEAN_ELEMENT_THEORY = SGP/SGP4

EPOCH          = 2026-01-03T17:18:00.874080
MEAN_MOTION    = 15.03209935
ECCENTRICITY   = .00154243
INCLINATION    = 62.7841
RA_OF_ASC_NODE = 114.7210
ARG_OF_PERICENTER = 323.1371
MEAN_ANOMALY   = 36.8667

EPHEMERIS_TYPE = 0
CLASSIFICATION_TYPE = U
NORAD_CAT_ID   = 20666
ELEMENT_SET_NO = 999
REV_AT_EPOCH   = 92842
BSTAR          = .32845609E-3
MEAN_MOTION_DOT = .4281E-4
MEAN_MOTION_DDOT = 0

CCSDS_OMM_VERS = 2.0
CREATION_DATE  = 
ORIGINATOR     = 

OBJECT_NAME    = SL-8 R/B
OBJECT_ID      = 1990-078B
CENTER_NAME    = EARTH
REF_FRAME      = TEME
TIME_SYSTEM    = UTC
MEAN_ELEMENT_THEORY = SGP/SGP4

EPOCH          = 2026-01-03T22:43:58.539648
MEAN_MOTION    = 14.86751764
ECCENTRICITY   = .0369241
INCLINATION    = 82.9068
RA_OF_ASC_NODE = 309.4207
ARG_OF_PERICENTER = 231.0926
MEAN_ANOMALY   = 125.6834

EPHEMERIS_TYPE = 0
CLASSIFICATION_TYPE = U
NORAD_CAT_ID   = 20775
ELEMENT_SET_NO = 999
REV_AT_EPOCH   = 79967
BSTAR          = .57558E-3
MEAN_MOTION_DOT = .18798E-3
MEAN_MOTION_DDOT = 0

CCSDS_OMM_VERS = 2.0
CREATION_DATE  = 
ORIGINATOR     = 

OBJECT_NAME    = SL-8 R/B
OBJECT_ID      = 1991-006B
CENTER_NAME    = EARTH
REF_FRAME      = TEME
TIME_SYSTEM    = UTC
MEAN_ELEMENT_THEORY = SGP/SGP4

EPOCH          = 2026-01-04T03:13:49.745856
MEAN_MOTION    = 13.77492924
ECCENTRICITY   = .00217
INCLINATION    = 82.9409
RA_OF_ASC_NODE = 218.0543
ARG_OF_PERICENTER = 213.7470
MEAN_ANOMALY   = 265.2344

EPHEMERIS_TYPE = 0
CLASSIFICATION_TYPE = U
NORAD_CAT_ID   = 21088
ELEMENT_SET_NO = 999
REV_AT_EPOCH   = 75518
BSTAR          = .30234E-4
MEAN_MOTION_DOT = .45E-6
MEAN_MOTION_DDOT = 0

CCSDS_OMM_VERS = 2.0
CREATION_DATE  = 
ORIGINATOR     = 

OBJECT_NAME    = OKEAN-3
OBJECT_ID      = 1991-039A
CENTER_NAME    = EARTH
REF_FRAME      = TEME
TIME_SYSTEM    = UTC
MEAN_ELEMENT_THEORY = SGP/SGP4

EPOCH          = 2026-01-04T04:00:17.167968
MEAN_MOTION    = 15.04286024
ECCENTRICITY   = .0014145
INCLINATION    = 82.5153
RA_OF_ASC_NODE = 39.3350
ARG_OF_PERICENTER = 184.0166
MEAN_ANOMALY   = 176.0950

EPHEMERIS_TYPE = 0
CLASSIFICATION_TYPE = U
NORAD_CAT_ID   = 21397
ELEMENT_SET_NO = 999
REV_AT_EPOCH   = 85533
BSTAR          = .39565E-3
MEAN_MOTION_DOT = .5545E-4
MEAN_MOTION_DDOT = 0

CCSDS_OMM_VERS = 2.0
CREATION_DATE  = 
ORIGINATOR     = 

OBJECT_NAME    = COSMOS 2151
OBJECT_ID      = 1991-042A
CENTER_NAME    = EARTH
REF_FRAME      = TEME
TIME_SYSTEM    = UTC
MEAN_ELEMENT_THEORY = SGP/SGP4

EPOCH          = 2026-01-04T02:35:24.672480
MEAN_MOTION    = 14.99799788
ECCENTRICITY   = .0011111
INCLINATION    = 82.4973
RA_OF_ASC_NODE = 145.9467
ARG_OF_PERICENTER = 278.6761
MEAN_ANOMALY   = 81.3204

EPHEMERIS_TYPE = 0
CLASSIFICATION_TYPE = U
NORAD_CAT_ID   = 21422
ELEMENT_SET_NO = 999
REV_AT_EPOCH   = 85351
BSTAR          = .26756E-3
MEAN_MOTION_DOT = .3338E-4
MEAN_MOTION_DDOT = 0

