DELTA 2 R/B(1)          
1 20453U 90008B   26004.02691396  .00066989  00000+0  10059-2 0  9993
2 20453  35.6042 236.3967 0105278  20.6929 339.8023 15.47495909916088
COSMOS 2058             
1 20465U 90010A   26004.01503718  .00006712  00000+0  40289-3 0  9995
2 20465  82.4723 111.1217 0010019 193.0306 167.0666 15.10727175932475
SL-14 R/B               
1 20466U 90010B   26004.00418287  .00000818  00000+0  96292-4 0  9998
2 20466  82.5034 328.1366 0020552 149.1491 211.0937 14.83498054918898
SL-14 R/B               
1 20511U 90018B   26004.16223872  .00000815  00000+0  99480-4 0  9997
2 20511  82.5223 283.4093 0015214 308.0103  51.9737 14.82075564913029
HST                     
1 20580U 90037B   26003.99575588  .00010446  00000+0  35903-3 0  9998
2 20580  28.4667 120.9614 0002543 112.5508 247.5357 15.28385094763407
SL-16 R/B               
1 20625U 90046B   26004.15542995  .00000359  00000+0  21000-3 0  9998
2 20625  70.9995  73.4473 0012781  35.3306 324.8660 14.15001036839261
COSMOS 2084             
1 20663U 90055A   26003.95808035  .00005241  00000+0  37659-3 0  9999
2 20663  62.7886 196.2789 0027960 177.9273 182.1948 15.05180500926575
SL-6 R/B(2)             
1 20666U 90055D   26003.72084345  .00004281  00000+0  32846-3 0  9993
2 20666  62.7841 114.7210 0015424 323.1371  36.8667 15.03209935928420
SL-8 R/B                
1 20775U 90078B   26003.94720532  .00018798  00000+0  57558-3 0  9993
2 20775  82.9068 309.4207 0369241 231.0926 125.6834 14.86751764799675
SL-8 R/B                
1 21088U 91006B   26004.13460354  .00000045  00000+0  30234-4 0  9997
2 21088  82.9409 218.0543 0021700 213.7470 265.2344 13.77492924755180
OKEAN-3                 
1 21397U 91039A   26004.16686537  .00005545  00000+0  39565-3 0  9997
2 21397  82.5153  39.3350 0014145 184.0166 176.0950 15.04286024855336
COSMOS 2151             
1 21422U 91042A   26004.10792445  .00003338  00000+0  26756-3 0  9996
2 21422  82.4973 145.9467 0011111 278.6761  81.3204 14.99799788853515
